NORAD_CAT_ID,OBJECT_NAME,OBJECT_TYPE,EPOCH,MEAN_MOTION,ECCENTRICITY,INCLINATION,RA_OF_ASC_NODE,ARG_OF_PERICENTER,MEAN_ANOMALY,BSTAR,MEAN_MOTION_DOT,MEAN_MOTION_DDOT,TLE_LINE0,TLE_LINE1,TLE_LINE2,SEMIMAJOR_AXIS,PERIOD,APOGEE,PERIGEE,DECAYED
50159.0,STARLINK-3297,PAYLOAD,2023-08-15 01:36:45,15.08838096,0.0001479,53.217,148.2805,100.9394,259.1765,3.6995e-05,3.01e-06,0.0,0 STARLINK-3297,1 50159U 21125D   23227.06719102  .00000301  00000-0  36995-4 0  9993,2 50159  53.2170 148.2805 0001479 100.9394 259.1765 15.08838096 91367,6917.886,95.438,540.774,538.728,0.0
50159.0,STARLINK-3297,PAYLOAD,2023-08-16 04:38:18,15.08844099,0.0001401,53.2169,143.2268,92.8732,267.2421,4.2896e-05,3.95e-06,0.0,0 STARLINK-3297,1 50159U 21125D   23228.19326760  .00000395  00000-0  42896-4 0  9992,2 50159  53.2169 143.2268 0001401  92.8732 267.2421 15.08844099 91531,6917.868,95.437,540.702,538.764,0.0
50159.0,STARLINK-3297,PAYLOAD,2023-08-16 18:56:46,15.08837009,0.0001545,53.2168,140.5508,101.5226,258.594,5.3223e-05,5.59e-06,0.0,0 STARLINK-3297,1 50159U 21125D   23228.78943189  .00000559  00000-0  53223-4 0  9995,2 50159  53.2168 140.5508 0001545 101.5226 258.5940 15.08837009 91624,6917.89,95.438,540.823,538.686,0.0
50159.0,STARLINK-3297,PAYLOAD,2023-08-17 01:18:19,15.08846877,0.0001505,53.2168,139.3614,99.3756,260.7406,2.6882e-05,1.4e-06,0.0,0 STARLINK-3297,1 50159U 21125D   23229.05438680  .00000140  00000-0  26882-4 0  9998,2 50159  53.2168 139.3614 0001505  99.3756 260.7406 15.08846877 91665,6917.859,95.437,540.766,538.683,0.0
50159.0,STARLINK-3297,PAYLOAD,2023-08-17 04:29:05,15.08830809,0.0001499,53.2171,138.7668,90.3206,269.7958,0.00024329,3.585e-05,0.0,0 STARLINK-3297,1 50159U 21125D   23229.18687070  .00003585  00000-0  24329-3 0  9990,2 50159  53.2171 138.7668 0001499  90.3206 269.7958 15.08830809 91685,6917.908,95.438,540.81,538.736,0.0
50159.0,STARLINK-3297,PAYLOAD,2023-08-18 01:09:05,15.08850989,0.0001469,53.2159,134.9011,106.9615,253.1538,0.00015841,2.235e-05,0.0,0 STARLINK-3297,1 50159U 21125D   23230.04798014  .00002235  00000-0  15841-3 0  9998,2 50159  53.2159 134.9011 0001469 106.9615 253.1538 15.08850989 91813,6917.847,95.437,540.728,538.696,0.0
50159.0,STARLINK-3297,PAYLOAD,2023-08-18 17:02:58,15.08834696,0.0001578,53.2159,131.9279,87.9924,272.1249,2.6746e-05,1.38e-06,0.0,0 STARLINK-3297,1 50159U 21125D   23230.71039592  .00000138  00000-0  26746-4 0  9998,2 50159  53.2159 131.9279 0001578  87.9924 272.1249 15.08834696 91916,6917.897,95.438,540.853,538.67,0.0
50159.0,STARLINK-3297,PAYLOAD,2023-08-20 02:26:04,15.08838483,0.00014,53.2169,125.6837,90.4688,269.6465,-5.2846e-05,-1.129e-05,0.0,0 STARLINK-3297,1 50159U 21125D   23232.10144059 -.00001129  00000-0 -52846-4 0  9991,2 50159  53.2169 125.6837 0001400  90.4688 269.6465 15.08838483 92120,6917.885,95.438,540.719,538.782,0.0
50159.0,STARLINK-3297,PAYLOAD,2023-08-21 02:16:50,15.08842851,0.0001345,53.2164,121.2228,93.0089,267.1057,0.00012657,1.727e-05,0.0,0 STARLINK-3297,1 50159U 21125D   23233.09503470  .00001727  00000-0  12657-3 0  9993,2 50159  53.2164 121.2228 0001345  93.0089 267.1057 15.08842851 92273,6917.872,95.437,540.667,538.806,0.0
50159.0,STARLINK-3297,PAYLOAD,2023-08-21 19:46:06,15.08832527,0.0001356,53.2174,117.9498,96.7817,263.333,-5.6212e-08,-2.89e-06,0.0,0 STARLINK-3297,1 50159U 21125D   23233.82368910 -.00000289  00000-0 -56212-7 0  9995,2 50159  53.2174 117.9498 0001356  96.7817 263.3330 15.08832527 92389,6917.903,95.438,540.706,538.83,0.0
50159.0,STARLINK-3297,PAYLOAD,2023-08-23 00:23:02,15.08852158,0.0001422,53.2173,112.5994,86.6961,273.4194,2.4889e-05,1.08e-06,0.0,0 STARLINK-3297,1 50159U 21125D   23235.01599806  .00000108  00000-0  24889-4 0  9998,2 50159  53.2173 112.5994 0001422  86.6961 273.4194 15.08852158 92564,6917.843,95.437,540.692,538.725,0.0
50159.0,STARLINK-3297,PAYLOAD,2023-08-24 01:49:12,15.0884228,0.000134,53.217,107.8423,84.9936,275.1209,8.1929e-05,1.016e-05,0.0,0 STARLINK-3297,1 50159U 21125D   23236.07584347  .00001016  00000-0  81929-4 0  9996,2 50159  53.2170 107.8423 0001340  84.9936 275.1209 15.08842280 96269,6917.873,95.437,540.665,538.811,0.0
50159.0,STARLINK-3297,PAYLOAD,2023-08-25 00:04:36,15.0884362,0.0001409,53.2178,103.6782,84.0362,276.0791,6.8995e-05,8.1e-06,0.0,0 STARLINK-3297,1 50159U 21125D   23237.00320116  .00000810  00000-0  68995-4 0  9991,2 50159  53.2178 103.6782 0001409  84.0362 276.0791 15.08843620 96400,6917.869,95.437,540.709,538.76,0.0
50159.0,STARLINK-3297,PAYLOAD,2023-08-25 19:09:14,15.08840011,0.0001314,53.2171,100.1099,87.3328,272.7815,2.0962e-05,4.6e-07,0.0,0 STARLINK-3297,1 50159U 21125D   23237.79808424  .00000046  00000-0  20962-4 0  9993,2 50159  53.2171 100.1099 0001314  87.3328 272.7815 15.08840011 92989,6917.88,95.438,540.654,538.836,0.0
50159.0,STARLINK-3297,PAYLOAD,2023-08-25 20:44:37,15.08840538,0.0001344,53.2171,99.8125,86.246,273.8686,2.7831e-05,1.55e-06,0.0,0 STARLINK-3297,1 50159U 21125D   23237.86432372  .00000155  00000-0  27831-4 0  9999,2 50159  53.2171  99.8125 0001344  86.2460 273.8686 15.08840538 96538,6917.879,95.438,540.674,538.814,0.0
50159.0,STARLINK-3297,PAYLOAD,2023-08-26 01:30:46,15.0884248,0.0001359,53.2171,98.9198,84.4971,275.6176,4.2267e-05,3.85e-06,0.0,0 STARLINK-3297,1 50159U 21125D   23238.06304179  .00000385  00000-0  42267-4 0  9990,2 50159  53.2171  98.9198 0001359  84.4971 275.6176 15.08842480 96566,6917.873,95.437,540.678,538.798,0.0
50159.0,STARLINK-3297,PAYLOAD,2023-08-26 20:35:24,15.08837822,0.0001468,53.2176,95.3501,82.6046,277.5113,4.8627e-05,4.86e-06,0.0,0 STARLINK-3297,1 50159U 21125D   23238.85792473  .00000486  00000-0  48627-4 0  9993,2 50159  53.2176  95.3501 0001468  82.6046 277.5113 15.08837822 96683,6917.887,95.438,540.768,538.737,0.0
50159.0,STARLINK-3297,PAYLOAD,2023-08-26 23:46:10,15.08840746,0.0001495,53.2178,94.7555,82.671,277.4452,7.0402e-05,8.33e-06,0.0,0 STARLINK-3297,1 50159U 21125D   23238.99040248  .00000833  00000-0  70402-4 0  9996,2 50159  53.2178  94.7555 0001495  82.6710 277.4452 15.08840746 93169,6917.878,95.438,540.777,538.709,0.0
50159.0,STARLINK-3297,PAYLOAD,2023-08-27 20:26:08,15.08882292,0.000135,53.2178,90.8895,93.1818,266.9329,0.0004149,6.329e-05,0.0,0 STARLINK-3297,1 50159U 21125D   23239.85148814  .00006329  00000-0  41490-3 0  9990,2 50159  53.2178  90.8895 0001350  93.1818 266.9329 15.08882292 96834,6917.751,95.435,540.55,538.682,0.0
50159.0,STARLINK-3297,PAYLOAD,2023-08-27 23:36:54,15.0888757,0.0001291,53.2178,90.2948,83.7556,276.3583,0.00044896,6.874e-05,0.0,0 STARLINK-3297,1 50159U 21125D   23239.98396154  .00006874  00000-0  44896-3 0  9994,2 50159  53.2178  90.2948 0001291  83.7556 276.3583 15.08887570 93316,6917.735,95.435,540.493,538.707,0.0
50159.0,STARLINK-3297,PAYLOAD,2023-08-28 07:33:52,15.08847863,0.0001717,53.2178,88.8078,85.7522,274.3666,0.00010947,1.455e-05,0.0,0 STARLINK-3297,1 50159U 21125D   23240.31519120  .00001455  00000-0  10947-3 0  9993,2 50159  53.2178  88.8078 0001717  85.7522 274.3666 15.08847863 93367,6917.856,95.437,540.909,538.534,0.0
50159.0,STARLINK-3297,PAYLOAD,2023-08-28 13:55:27,15.08817961,0.0001427,53.2176,87.6185,92.4364,267.6792,-0.00013354,-2.411e-05,0.0,0 STARLINK-3297,1 50159U 21125D   23240.58017688 -.00002411  00000-0 -13354-3 0  9994,2 50159  53.2176  87.6185 0001427  92.4364 267.6792 15.08817961 93404,6917.948,95.439,540.8,538.826,0.0
50159.0,STARLINK-3297,PAYLOAD,2023-08-28 20:16:59,15.08825973,0.0001501,53.2171,86.4306,90.6869,269.4295,-0.0001192,-2.184e-05,0.0,0 STARLINK-3297,1 50159U 21125D   23240.84513356 -.00002184  00000-0 -11920-3 0  9990,2 50159  53.2171  86.4306 0001501  90.6869 269.4295 15.08825973 96980,6917.923,95.438,540.827,538.75,0.0
50159.0,STARLINK-3297,PAYLOAD,2023-08-28 23:27:45,15.08827945,0.0001564,53.2176,85.8363,86.1327,273.9844,-9.5312e-05,-1.804e-05,0.0,0 STARLINK-3297,1 50159U 21125D   23240.97761304 -.00001804  00000-0 -95312-4 0  9998,2 50159  53.2176  85.8363 0001564  86.1327 273.9844 15.08827945 93460,6917.917,95.438,540.864,538.7,0.0
50159.0,STARLINK-3297,PAYLOAD,2023-08-29 16:56:59,15.0886566,0.0001195,53.2171,82.5652,104.5225,255.59,-0.00037191,-6.206e-05,0.0,0 STARLINK-3297,1 50159U 21125D   23241.70624278 -.00006206  00000-0 -37191-3 0  9999,2 50159  53.2171  82.5652 0001195 104.5225 255.5900 15.08865660 93579,6917.802,95.436,540.494,538.84,0.0
50159.0,STARLINK-3297,PAYLOAD,2023-08-29 20:07:45,15.08864496,0.0001333,53.2176,81.9702,87.6734,272.4411,-0.00031266,-5.264e-05,0.0,0 STARLINK-3297,1 50159U 21125D   23241.83872032 -.00005264  00000-0 -31266-3 0  9996,2 50159  53.2176  81.9702 0001333  87.6734 272.4411 15.08864496 97130,6917.806,95.436,540.593,538.748,0.0
50159.0,STARLINK-3297,PAYLOAD,2023-08-30 12:01:35,15.08881105,0.000176,53.2176,78.9965,81.4928,278.6263,-0.00058973,-9.672e-05,0.0,0 STARLINK-3297,1 50159U 21125D   23242.50110536 -.00009672  00000-0 -58973-3 0  9996,2 50159  53.2176  78.9965 0001760  81.4928 278.6263 15.08881105 93694,6917.755,95.435,540.837,538.402,0.0
50159.0,STARLINK-3297,PAYLOAD,2023-08-30 19:58:32,15.08832055,0.000155,53.2178,77.5098,92.4731,267.6438,0.00024403,3.597e-05,0.0,0 STARLINK-3297,1 50159U 21125D   23242.83232628  .00003597  00000-0  24403-3 0  9998,2 50159  53.2178  77.5098 0001550  92.4731 267.6438 15.08832055 97280,6917.905,95.438,540.842,538.697,0.0
50159.0,STARLINK-3297,PAYLOAD,2023-08-30 23:09:19,15.08836206,0.0001511,53.2176,76.9146,91.1476,268.9689,0.00023535,3.459e-05,0.0,0 STARLINK-3297,1 50159U 21125D   23242.96480516  .00003459  00000-0  23535-3 0  9995,2 50159  53.2176  76.9146 0001511  91.1476 268.9689 15.08836206 93767,6917.892,95.438,540.802,538.712,0.0
50159.0,STARLINK-3297,PAYLOAD,2023-08-31 11:52:24,15.08834642,0.0001504,53.2155,74.5363,91.4984,268.618,0.00010943,1.454e-05,0.0,0 STARLINK-3297,1 50159U 21125D   23243.49473100  .00001454  00000-0  10943-3 0  9997,2 50159  53.2155  74.5363 0001504  91.4984 268.6180 15.08834642 93842,6917.897,95.438,540.802,538.721,0.0
